     3.04           N: GNSS NAV DATA    M: MIXED            RINEX VERSION / TYPE
ssrcrin-15.6.1x                         20250101 120000 UTC PGM / RUN BY / DATE 
    18                                                      LEAP SECONDS        
                                                            END OF HEADER       
C02 2025 01 01 12 00 00 6.962508196011E-04-2.307842805749E-11 0.000000000000E+00
     1.000000000000E+00-6.162500000000E+02-4.753769442150E-10-6.074341322412E-02
    -2.021109685302E-05 8.237760048360E-04 1.963786780834E-05 6.493373123169E+03
     3.024000000000E+05-1.415610313416E-07-9.160536416540E-02-1.867301762104E-07
     1.384379756859E-01-6.041406250000E+02-1.464354735041E+00 1.558636352032E-09
     8.403921485634E-10 0.000000000000E+00 9.910000000000E+02 0.000000000000E+00
     2.000000000000E+00 0.000000000000E+00 1.700000000000E-09-1.380000000000E-08
     3.024276000000E+05 0.000000000000E+00
E02 2025 01 01 11 50 00 1.867295941338E-04 2.870592652471E-12 0.000000000000E+00
     1.220000000000E+02-1.675000000000E+01 3.348710915822E-09 8.337403673986E-01
    -8.102506399155E-07 5.105317104608E-04 6.910413503647E-06 5.440611028671E+03
     3.018000000000E+05-9.313225746155E-09 2.416792773165E+00 1.862645149231E-09
     9.646419626040E-01 1.955000000000E+02 6.876551176530E-01-5.434869241262E-09
    -6.839570609855E-10 5.170000000000E+02 2.347000000000E+03
     3.120000000000E+00 0.000000000000E+00-3.958120942116E-09-3.958120942116E-09
     3.024650000000E+05
E30 2025 01 01 11 50 00-1.089952827897E-03-4.001776687801E-11 0.000000000000E+00
     1.220000000000E+02-1.559375000000E+01 3.476573384665E-09-2.451135085215E-01
    -6.910413503647E-07 5.762202199548E-04 6.414949893951E-06 5.440610685349E+03
     3.018000000000E+05 2.235174179077E-08 2.416224419251E+00 2.048909664154E-08
     9.620417354370E-01 2.015625000000E+02 9.714418954942E-01-5.520944255203E-09
    -6.571702309208E-10 5.170000000000E+02 2.347000000000E+03
     3.120000000000E+00 0.000000000000E+00-9.313225746155E-10-2.328306436539E-10
     3.024650000000E+05
E08 2025 01 01 11 50 00-3.933710977435E-04-6.238565219974E-12 0.000000000000E+00
     1.220000000000E+02-1.797500000000E+02 2.762615074007E-09 2.198463641578E+00
    -8.212402462959E-06 1.771618844941E-04 1.315027475357E-05 5.440618761063E+03
     3.018000000000E+05-3.725290298462E-08 3.140789909478E-01 7.450580596924E-09
     9.694242081580E-01 6.268750000000E+01 6.465003559862E-01-5.185573142793E-09
     3.464430021702E-10 5.170000000000E+02 2.347000000000E+03
     3.120000000000E+00 0.000000000000E+00-5.820766091347E-09-5.820766091347E-09
     3.024650000000E+05
E25 2025 01 01 11 50 00 1.284049358219E-05 4.263256414561E-13 0.000000000000E+00
     1.220000000000E+02-2.671875000000E+01 3.358354174646E-09 1.916361959573E+00
    -1.458451151848E-06 2.101085847244E-04 6.742775440216E-06 5.440604375839E+03
     3.018000000000E+05 1.117587089539E-08 2.413634780685E+00 4.656612873077E-08
     9.642472409737E-01 1.988125000000E+02 3.938629837113E-01-5.475585222960E-09
    -7.436024025962E-10 5.170000000000E+02 2.347000000000E+03
     3.120000000000E+00 0.000000000000E+00 2.328306436539E-10 1.164153218269E-09
     3.024650000000E+05
E27 2025 01 01 11 50 00-5.448375013657E-04-9.947598300641E-12 0.000000000000E+00
     1.220000000000E+02-2.078125000000E+01 3.486573801222E-09-6.038262573416E-01
    -1.028180122375E-06 3.199991770089E-04 6.081536412239E-06 5.440600654602E+03
     3.018000000000E+05 1.862645149231E-08 2.413606173322E+00-1.303851604462E-08
     9.642121953082E-01 2.071875000000E+02 5.517469618128E-01-5.532373302697E-09
    -6.671706474783E-10 5.170000000000E+02 2.347000000000E+03
     3.120000000000E+00 0.000000000000E+00-4.656612873077E-10 4.656612873077E-10
     3.024650000000E+05
R05 2025 01 01 12 15 00 1.430781558156E-04 9.094947017729E-13 3.024600000000E+05
    -8.705375976562E+03 2.998218536377E+00-4.656612873077E-09 0.000000000000E+00
    -8.516020996094E+03-6.613683700562E-01-0.000000000000E+00 1.000000000000E+00
     2.242945947266E+04 9.104051589966E-01-0.000000000000E+00 0.000000000000E+00
S27 2025 01 01 12 02 08 4.097819328308E-08 4.092726157978E-11 3.025020000000E+05
     2.407521640000E+04-8.856250000000E-04 3.750000000000E-07 3.100000000000E+01
     3.459251456000E+04 3.390625000000E-03-1.000000000000E-07 4.096000000000E+03
    -5.283460000000E+02-1.404800000000E-02 2.812500000000E-06 1.670000000000E+02
S28 2025 01 01 12 02 08 4.097819328308E-08 3.183231456205E-11 3.025020000000E+05
     5.070104560000E+03 7.050000000000E-04 2.250000000000E-07 3.100000000000E+01
     4.186363776000E+04 1.373125000000E-03-3.750000000000E-08 4.096000000000E+03
     1.986480000000E+01 9.040000000000E-04-1.250000000000E-07 1.670000000000E+02
S36 2025 01 01 12 01 36 0.000000000000E+00 0.000000000000E+00 3.025040000000E+05
     4.200368800000E+04 0.000000000000E+00 0.000000000000E+00 6.300000000000E+01
     3.674846960000E+03 0.000000000000E+00 0.000000000000E+00 3.276700000000E+04
     0.000000000000E+00 0.000000000000E+00 0.000000000000E+00 1.790000000000E+02
E02 2025 01 01 11 50 00 1.867294777185E-04 2.870592652471E-12 0.000000000000E+00
     1.220000000000E+02-1.675000000000E+01 3.348710915822E-09 8.337403673986E-01
    -8.102506399155E-07 5.105317104608E-04 6.910413503647E-06 5.440611028671E+03
     3.018000000000E+05-9.313225746155E-09 2.416792773165E+00 1.862645149231E-09
     9.646419626040E-01 1.955000000000E+02 6.876551176530E-01-5.434869241262E-09
    -6.839570609855E-10 2.580000000000E+02 2.347000000000E+03
     3.120000000000E+00 0.000000000000E+00-3.958120942116E-09 0.000000000000E+00
     3.025400000000E+05
E30 2025 01 01 11 50 00-1.089953759219E-03-4.001776687801E-11 0.000000000000E+00
     1.220000000000E+02-1.559375000000E+01 3.476573384665E-09-2.451135085215E-01
    -6.910413503647E-07 5.762202199548E-04 6.414949893951E-06 5.440610685349E+03
     3.018000000000E+05 2.235174179077E-08 2.416224419251E+00 2.048909664154E-08
     9.620417354370E-01 2.015625000000E+02 9.714418954942E-01-5.520944255203E-09
    -6.571702309208E-10 2.580000000000E+02 2.347000000000E+03
     3.120000000000E+00 0.000000000000E+00-9.313225746155E-10 0.000000000000E+00
     3.025400000000E+05
E08 2025 01 01 11 50 00-3.933713887818E-04-6.238565219974E-12 0.000000000000E+00
     1.220000000000E+02-1.797500000000E+02 2.762615074007E-09 2.198463641578E+00
    -8.212402462959E-06 1.771618844941E-04 1.315027475357E-05 5.440618761063E+03
     3.018000000000E+05-3.725290298462E-08 3.140789909478E-01 7.450580596924E-09
     9.694242081580E-01 6.268750000000E+01 6.465003559862E-01-5.185573142793E-09
     3.464430021702E-10 2.580000000000E+02 2.347000000000E+03
     3.120000000000E+00 0.000000000000E+00-5.820766091347E-09 0.000000000000E+00
     3.025400000000E+05
E25 2025 01 01 11 50 00 1.283915480599E-05 4.263256414561E-13 0.000000000000E+00
     1.220000000000E+02-2.671875000000E+01 3.358354174646E-09 1.916361959573E+00
    -1.458451151848E-06 2.101085847244E-04 6.742775440216E-06 5.440604375839E+03
     3.018000000000E+05 1.117587089539E-08 2.413634780685E+00 4.656612873077E-08
     9.642472409737E-01 1.988125000000E+02 3.938629837113E-01-5.475585222960E-09
    -7.436024025962E-10 2.580000000000E+02 2.347000000000E+03
     3.120000000000E+00 0.000000000000E+00 2.328306436539E-10 0.000000000000E+00
     3.025400000000E+05
E27 2025 01 01 11 50 00-5.448384326883E-04-9.933387445926E-12 0.000000000000E+00
     1.220000000000E+02-2.078125000000E+01 3.486573801222E-09-6.038262573416E-01
    -1.028180122375E-06 3.199991770089E-04 6.081536412239E-06 5.440600654602E+03
     3.018000000000E+05 1.862645149231E-08 2.413606173322E+00-1.303851604462E-08
     9.642121953082E-01 2.071875000000E+02 5.517469618128E-01-5.532373302697E-09
    -6.671706474783E-10 2.580000000000E+02 2.347000000000E+03
     3.120000000000E+00 0.000000000000E+00-4.656612873077E-10 0.000000000000E+00
     3.025400000000E+05
S23 2025 01 01 12 02 08 0.000000000000E+00 0.000000000000E+00 3.025430000000E+05
     3.866796400000E+04 0.000000000000E+00 0.000000000000E+00 6.300000000000E+01
     1.681330800000E+04 0.000000000000E+00 0.000000000000E+00 3.276700000000E+04
     0.000000000000E+00 0.000000000000E+00 0.000000000000E+00 7.500000000000E+01
S44 2025 01 01 12 02 08 8.423812687397E-07 0.000000000000E+00 3.025520000000E+05
     7.250952880000E+03 2.073125000000E-03 2.875000000000E-07 6.300000000000E+01
     4.152330432000E+04 4.014375000000E-03-1.375000000000E-07 3.276700000000E+04
    -1.086487200000E+03 1.159120000000E-01 2.875000000000E-06 6.000000000000E+01
S21 2025 01 01 12 02 56 0.000000000000E+00 0.000000000000E+00 3.025860000000E+05
     4.200468400000E+04 0.000000000000E+00 0.000000000000E+00 6.300000000000E+01
    -3.674932960000E+03 0.000000000000E+00 0.000000000000E+00 3.276700000000E+04
     0.000000000000E+00 0.000000000000E+00 0.000000000000E+00 1.130000000000E+02
S36 2025 01 01 12 04 16 0.000000000000E+00 0.000000000000E+00 3.026560000000E+05
     4.200368800000E+04 0.000000000000E+00 0.000000000000E+00 6.300000000000E+01
     3.674846960000E+03 0.000000000000E+00 0.000000000000E+00 3.276700000000E+04
     0.000000000000E+00 0.000000000000E+00 0.000000000000E+00 1.800000000000E+02
S23 2025 01 01 12 04 16 0.000000000000E+00 0.000000000000E+00 3.026700000000E+05
     3.866796400000E+04 0.000000000000E+00 0.000000000000E+00 6.300000000000E+01
     1.681330800000E+04 0.000000000000E+00 0.000000000000E+00 3.276700000000E+04
     0.000000000000E+00 0.000000000000E+00 0.000000000000E+00 7.600000000000E+01
S44 2025 01 01 12 04 16 8.423812687397E-07 0.000000000000E+00 3.026720000000E+05
     7.251223200000E+03 2.148750000000E-03 2.875000000000E-07 6.300000000000E+01
     4.152381584000E+04 3.976250000000E-03-1.375000000000E-07 3.276700000000E+04
    -1.071603600000E+03 1.166440000000E-01 2.812500000000E-06 6.000000000000E+01
